IRIDIUM 7               
1 24793U 97020B   25142.18476885  .00000318  00000+0  10300-3 0  9992
2 24793  86.3998 187.7972 0002256  99.7701 260.3750 14.35922450468386
IRIDIUM 5               
1 24795U 97020D   25141.58909350  .00002739  00000+0  22584-3 0  9991
2 24795  86.3870  95.9958 0106927 233.0188 126.1218 14.94171384481495
IRIDIUM 4               
1 24796U 97020E   25141.55776614  .00000245  00000+0  76307-4 0  9997
2 24796  86.3993 184.9580 0002213  93.6212 266.5239 14.36825646468640
IRIDIUM 914             
1 24836U 97030A   25141.56574350  .00000348  00000+0  10248-3 0  9992
2 24836  86.3978 193.6296 0001366  51.7187 308.4135 14.40851627603299
IRIDIUM 16              
1 24841U 97030F   25141.48581041  .00000353  00000+0  10874-3 0  9995
2 24841  86.4070 216.4821 0003983 123.7495 236.4084 14.38696190463168
IRIDIUM 911             
1 24842U 97030G   25141.57335582  .00000452  00000+0  11717-3 0  9990
2 24842  86.4497 215.2435 0014328 177.0848 183.0442 14.47613750471232
IRIDIUM 17              
1 24870U 97034B   25141.80457815  .00000394  00000+0  12437-3 0  9990
2 24870  86.3967 245.8406 0003908  98.5499 261.6142 14.37807540459790
IRIDIUM 920             
1 24871U 97034C   25141.70687419  .00000360  00000+0  10460-3 0  9992
2 24871  86.4004 225.1717 0012409 158.9879 201.1833 14.41513257463020
